{
  "type": "FeatureCollection",
  "features": [
    {
      "type": "Feature",
      "properties": {
        "norad_id": 25590,
        "name": "COSMOS 2361",
        "group": "musson",
        "lat": 24.241637742281554,
        "lon": -11.207863021704108,
        "alt_km": 995.9642883467022,
        "timestamp": "2025-12-10T16:57:11.906384+00:00",
        "meta_object_name": "COSMOS 2361",
        "meta_object_id": "1998-076A",
        "meta_epoch": "2025-12-10T12:08:02.703840",
        "meta_mean_motion": 13.73217127,
        "meta_eccentricity": 0.0030057,
        "meta_inclination": 82.9338,
        "meta_ra_of_asc_node": 345.7389,
        "meta_arg_of_pericenter": 272.0915,
        "meta_mean_anomaly": 200.0139,
        "meta_ephemeris_type": 0,
        "meta_classification_type": "U",
        "meta_norad_cat_id": 25590,
        "meta_element_set_no": 999,
        "meta_rev_at_epoch": 35080,
        "meta_bstar": 8.502e-05,
        "meta_mean_motion_dot": 9.4e-07,
        "meta_mean_motion_ddot": 0,
        "tle_line1": "1 25590U 98076A   25344.50558685  .00000094  00000+0  85020-4 0  9992",
        "tle_line2": "2 25590  82.9338 345.7389 0030057 272.0915 200.0139 13.73217127350801"
      },
      "geometry": {
        "type": "Point",
        "coordinates": [
          -11.207863021704108,
          24.241637742281554
        ]
      }
    },
    {
      "type": "Feature",
      "properties": {
        "norad_id": 26818,
        "name": "COSMOS 2378",
        "group": "musson",
        "lat": 82.91947030220712,
        "lon": 89.4064157796429,
        "alt_km": 989.4155874018525,
        "timestamp": "2025-12-10T16:57:11.906407+00:00",
        "meta_object_name": "COSMOS 2378",
        "meta_object_id": "2001-023A",
        "meta_epoch": "2025-12-10T11:48:43.250400",
        "meta_mean_motion": 13.74141732,
        "meta_eccentricity": 0.003228,
        "meta_inclination": 82.9273,
        "meta_ra_of_asc_node": 1.3916,
        "meta_arg_of_pericenter": 211.2505,
        "meta_mean_anomaly": 259.7094,
        "meta_ephemeris_type": 0,
        "meta_classification_type": "U",
        "meta_norad_cat_id": 26818,
        "meta_element_set_no": 999,
        "meta_rev_at_epoch": 22892,
        "meta_bstar": 5.9731e-05,
        "meta_mean_motion_dot": 7.1e-07,
        "meta_mean_motion_ddot": 0,
        "tle_line1": "1 26818U 01023A   25344.49216725  .00000071  00000+0  59731-4 0  9991",
        "tle_line2": "2 26818  82.9273   1.3916 0032280 211.2505 259.7094 13.74141732228921"
      },
      "geometry": {
        "type": "Point",
        "coordinates": [
          89.4064157796429,
          82.91947030220712
        ]
      }
    },
    {
      "type": "Feature",
      "properties": {
        "norad_id": 27436,
        "name": "COSMOS 2389",
        "group": "musson",
        "lat": -69.59425231524847,
        "lon": -70.93909369905252,
        "alt_km": 1014.0004702970127,
        "timestamp": "2025-12-10T16:57:11.906421+00:00",
        "meta_object_name": "COSMOS 2389",
        "meta_object_id": "2002-026A",
        "meta_epoch": "2025-12-10T10:54:24.321888",
        "meta_mean_motion": 13.75154267,
        "meta_eccentricity": 0.0047669,
        "meta_inclination": 82.95,
        "meta_ra_of_asc_node": 308.6765,
        "meta_arg_of_pericenter": 66.9463,
        "meta_mean_anomaly": 56.1274,
        "meta_ephemeris_type": 0,
        "meta_classification_type": "U",
        "meta_norad_cat_id": 27436,
        "meta_element_set_no": 999,
        "meta_rev_at_epoch": 18117,
        "meta_bstar": 9.193e-05,
        "meta_mean_motion_dot": 1.04e-06,
        "meta_mean_motion_ddot": 0,
        "tle_line1": "1 27436U 02026A   25344.45444817  .00000104  00000+0  91930-4 0  9997",
        "tle_line2": "2 27436  82.9500 308.6765 0047669  66.9463  56.1274 13.75154267181173"
      },
      "geometry": {
        "type": "Point",
        "coordinates": [
          -70.93909369905252,
          -69.59425231524847
        ]
      }
    },
    {
      "type": "Feature",
      "properties": {
        "norad_id": 27818,
        "name": "COSMOS 2398",
        "group": "musson",
        "lat": -79.89672438065709,
        "lon": 138.19467013179928,
        "alt_km": 1018.1174134023213,
        "timestamp": "2025-12-10T16:57:11.906432+00:00",
        "meta_object_name": "COSMOS 2398",
        "meta_object_id": "2003-023A",
        "meta_epoch": "2025-12-10T09:17:20.031360",
        "meta_mean_motion": 13.72385363,
        "meta_eccentricity": 0.0032501,
        "meta_inclination": 82.9484,
        "meta_ra_of_asc_node": 274.4319,
        "meta_arg_of_pericenter": 118.0873,
        "meta_mean_anomaly": 7.5444,
        "meta_ephemeris_type": 0,
        "meta_classification_type": "U",
        "meta_norad_cat_id": 27818,
        "meta_element_set_no": 999,
        "meta_rev_at_epoch": 12784,
        "meta_bstar": 9.5411e-05,
        "meta_mean_motion_dot": 1.03e-06,
        "meta_mean_motion_ddot": 0,
        "tle_line1": "1 27818U 03023A   25344.38703740  .00000103  00000+0  95411-4 0  9991",
        "tle_line2": "2 27818  82.9484 274.4319 0032501 118.0873   7.5444 13.72385363127849"
      },
      "geometry": {
        "type": "Point",
        "coordinates": [
          138.19467013179928,
          -79.89672438065709
        ]
      }
    },
    {
      "type": "Feature",
      "properties": {
        "norad_id": 28380,
        "name": "COSMOS 2407",
        "group": "musson",
        "lat": 68.44656274067351,
        "lon": -127.37375164239162,
        "alt_km": 941.0108348016811,
        "timestamp": "2025-12-10T16:57:11.906444+00:00",
        "meta_object_name": "COSMOS 2407",
        "meta_object_id": "2004-028A",
        "meta_epoch": "2025-12-10T10:28:27.638400",
        "meta_mean_motion": 13.76313301,
        "meta_eccentricity": 0.0040405,
        "meta_inclination": 82.9609,
        "meta_ra_of_asc_node": 214.598,
        "meta_arg_of_pericenter": 61.0993,
        "meta_mean_anomaly": 111.6335,
        "meta_ephemeris_type": 0,
        "meta_classification_type": "U",
        "meta_norad_cat_id": 28380,
        "meta_element_set_no": 999,
        "meta_rev_at_epoch": 7391,
        "meta_bstar": 7.2892e-05,
        "meta_mean_motion_dot": 8.7e-07,
        "meta_mean_motion_ddot": 0,
        "tle_line1": "1 28380U 04028A   25344.43643100  .00000087  00000+0  72892-4 0  9990",
        "tle_line2": "2 28380  82.9609 214.5980 0040405  61.0993 111.6335 13.76313301 73915"
      },
      "geometry": {
        "type": "Point",
        "coordinates": [
          -127.37375164239162,
          68.44656274067351
        ]
      }
    },
    {
      "type": "Feature",
      "properties": {
        "norad_id": 28521,
        "name": "COSMOS 2414",
        "group": "musson",
        "lat": -67.67803654258994,
        "lon": 23.740963490440386,
        "alt_km": 950.0292227650361,
        "timestamp": "2025-12-10T16:57:11.906455+00:00",
        "meta_object_name": "COSMOS 2414",
        "meta_object_id": "2005-002A",
        "meta_epoch": "2025-12-10T12:18:05.361120",
        "meta_mean_motion": 13.87902523,
        "meta_eccentricity": 0.0040767,
        "meta_inclination": 82.9493,
        "meta_ra_of_asc_node": 186.3442,
        "meta_arg_of_pericenter": 145.9271,
        "meta_mean_anomaly": 214.4522,
        "meta_ephemeris_type": 0,
        "meta_classification_type": "U",
        "meta_norad_cat_id": 28521,
        "meta_element_set_no": 999,
        "meta_rev_at_epoch": 5764,
        "meta_bstar": 7.1926e-05,
        "meta_mean_motion_dot": 1.02e-06,
        "meta_mean_motion_ddot": 0,
        "tle_line1": "1 28521U 05002A   25344.51256205  .00000102  00000+0  71926-4 0  9990",
        "tle_line2": "2 28521  82.9493 186.3442 0040767 145.9271 214.4522 13.87902523 57648"
      },
      "geometry": {
        "type": "Point",
        "coordinates": [
          23.740963490440386,
          -67.67803654258994
        ]
      }
    },
    {
      "type": "Feature",
      "properties": {
        "norad_id": 32052,
        "name": "COSMOS 2429",
        "group": "musson",
        "lat": 63.145236839212146,
        "lon": 150.72431730198628,
        "alt_km": 966.2034471972966,
        "timestamp": "2025-12-10T16:57:11.906465+00:00",
        "meta_object_name": "COSMOS 2429",
        "meta_object_id": "2007-038A",
        "meta_epoch": "2025-12-10T11:09:22.780800",
        "meta_mean_motion": 13.75149052,
        "meta_eccentricity": 0.0039351,
        "meta_inclination": 82.9802,
        "meta_ra_of_asc_node": 344.9859,
        "meta_arg_of_pericenter": 44.061,
        "meta_mean_anomaly": 316.3671,
        "meta_ephemeris_type": 0,
        "meta_classification_type": "U",
        "meta_norad_cat_id": 32052,
        "meta_element_set_no": 999,
        "meta_rev_at_epoch": 91571,
        "meta_bstar": 7.5522e-05,
        "meta_mean_motion_dot": 8.8e-07,
        "meta_mean_motion_ddot": 0,
        "tle_line1": "1 32052U 07038A   25344.46484700  .00000088  00000+0  75522-4 0  9991",
        "tle_line2": "2 32052  82.9802 344.9859 0039351  44.0610 316.3671 13.75149052915718"
      },
      "geometry": {
        "type": "Point",
        "coordinates": [
          150.72431730198628,
          63.145236839212146
        ]
      }
    },
    {
      "type": "Feature",
      "properties": {
        "norad_id": 35635,
        "name": "COSMOS 2454",
        "group": "musson",
        "lat": -74.77064153876285,
        "lon": 143.172969934607,
        "alt_km": 949.8476902852235,
        "timestamp": "2025-12-10T16:57:11.906475+00:00",
        "meta_object_name": "COSMOS 2454",
        "meta_object_id": "2009-039A",
        "meta_epoch": "2025-12-10T12:24:35.910720",
        "meta_mean_motion": 13.89928109,
        "meta_eccentricity": 0.002048,
        "meta_inclination": 82.9553,
        "meta_ra_of_asc_node": 170.3299,
        "meta_arg_of_pericenter": 79.6873,
        "meta_mean_anomaly": 337.2799,
        "meta_ephemeris_type": 0,
        "meta_classification_type": "U",
        "meta_norad_cat_id": 35635,
        "meta_element_set_no": 999,
        "meta_rev_at_epoch": 83119,
        "meta_bstar": 6.1681e-05,
        "meta_mean_motion_dot": 9.2e-07,
        "meta_mean_motion_ddot": 0,
        "tle_line1": "1 35635U 09039A   25344.51708230  .00000092  00000+0  61681-4 0  9993",
        "tle_line2": "2 35635  82.9553 170.3299 0020480  79.6873 337.2799 13.89928109831193"
      },
      "geometry": {
        "type": "Point",
        "coordinates": [
          143.172969934607,
          -74.77064153876285
        ]
      }
    },
    {
      "type": "Feature",
      "properties": {
        "norad_id": 36519,
        "name": "COSMOS 2463",
        "group": "musson",
        "lat": 79.61128883010615,
        "lon": 165.84024192650523,
        "alt_km": 1010.9558184320795,
        "timestamp": "2025-12-10T16:57:11.906485+00:00",
        "meta_object_name": "COSMOS 2463",
        "meta_object_id": "2010-017A",
        "meta_epoch": "2025-12-10T11:46:29.650080",
        "meta_mean_motion": 13.71648963,
        "meta_eccentricity": 0.0034836,
        "meta_inclination": 82.9615,
        "meta_ra_of_asc_node": 28.3655,
        "meta_arg_of_pericenter": 294.5247,
        "meta_mean_anomaly": 178.1615,
        "meta_ephemeris_type": 0,
        "meta_classification_type": "U",
        "meta_norad_cat_id": 36519,
        "meta_element_set_no": 999,
        "meta_rev_at_epoch": 78206,
        "meta_bstar": 6.8221e-05,
        "meta_mean_motion_dot": 7.6e-07,
        "meta_mean_motion_ddot": 0,
        "tle_line1": "1 36519U 10017A   25344.49062095  .00000076  00000+0  68221-4 0  9991",
        "tle_line2": "2 36519  82.9615  28.3655 0034836 294.5247 178.1615 13.71648963782063"
      },
      "geometry": {
        "type": "Point",
        "coordinates": [
          165.84024192650523,
          79.61128883010615
        ]
      }
    }
  ]
}